{"type":"FeatureCollection","features":[
{"type":"Feature","id":"Argentina","properties":{"name":"Argentina"},"geometry":{"type":"MultiPolygon","coordinates":[[[[-68.63,-52.64],[-68.25,-53.1],[-67.75,-53.85],[-66.45,-54.45],[-65.05,-54.7],[-65.5,-55.2],[-66.45,-55.25],[-66.96,-54.9],[-67.56,-54.87],[-68.63,-54.87],[-68.63,-52.64]]],[[[-57.63,-30.22],[-57.87,-31.02],[-58.14,-32.04],[-58.13,-33.04],[-58.35,-33.26],[-58.43,-33.91],[-58.5,-34.43],[-57.23,-35.29],[-57.36,-35.98],[-56.74,-36.41],[-56.79,-36.9],[-57.75,-38.18],[-59.23,-38.72],[-61.24,-38.93],[-62.34,-38.83],[-62.13,-39.42],[-62.33,-40.17],[-62.15,-40.68],[-62.75,-41.03],[-63.77,-41.17],[-64.73,-40.8],[-65.12,-41.06],[-64.98,-42.06],[-64.3,-42.36],[-63.76,-42.04],[-63.46,-42.56],[-64.38,-42.87],[-65.18,-43.5],[-65.33,-44.5],[-65.57,-45.04],[-66.51,-45.04],[-67.29,-45.55],[-67.58,-46.3],[-66.6,-47.03],[-65.64,-47.24],[-65.99,-48.13],[-67.17,-48.7],[-67.82,-49.87],[-68.73,-50.26],[-69.14,-50.73],[-68.82,-51.77],[-68.15,-52.35],[-68.57,-52.3],[-69.5,-52.14],[-71.91,-52.01],[-72.33,-51.43],[-72.31,-50.68],[-72.98,-50.74],[-73.33,-50.38],[-73.42,-49.32],[-72.65,-48.88],[-72.33,-48.24],[-72.45,-47.74],[-71.92,-46.88],[-71.55,-45.56],[-71.66,-44.97],[-71.22,-44.78],[-71.33,-44.41],[-71.79,-44.21],[-71.46,-43.79],[-71.92,-43.41],[-72.15,-42.25],[-71.75,-42.05],[-71.92,-40.83],[-71.68,-39.81],[-71.41,-38.92],[-70.81,-38.55],[-71.12,-37.58],[-71.12,-36.66],[-70.36,-36.01],[-70.39,-35.17],[-69.82,-34.19],[-69.81,-33.27],[-70.07,-33.09],[-70.54,-31.37],[-69.92,-30.34],[-70.01,-29.37],[-69.66,-28.46],[-69,-27.52],[-68.3,-26.9],[-68.59,-26.51],[-68.39,-26.19],[-68.42,-24.52],[-67.33,-24.03],[-66.99,-22.99],[-67.11,-22.74],[-66.27,-21.83],[-64.96,-22.08],[-64.38,-22.8],[-63.99,-21.99],[-62.85,-22.03],[-62.69,-22.25],[-60.85,-23.88],[-60.03,-24.03],[-58.81,-24.77],[-57.78,-25.16],[-57.63,-25.6],[-58.62,-27.12],[-57.61,-27.4],[-56.49,-27.55],[-55.7,-27.39],[-54.79,-26.62],[-54.63,-25.74],[-54.13,-25.55],[-53.63,-26.12],[-53.65,-26.92],[-54.49,-27.47],[-55.16,-27.88],[-56.29,-28.85],[-57.63,-30.22]]]]}},
{"type":"Feature","id":"Austria","properties":{"name":"Austria"},"geometry":{"type":"Polygon","coordinates":[[[16.98,48.12],[16.9,47.71],[16.34,47.71],[16.53,47.5],[16.2,46.85],[16.01,46.68],[15.14,46.66],[14.63,46.43],[13.81,46.51],[12.38,46.77],[12.15,47.12],[11.16,46.94],[11.05,46.75],[10.44,46.89],[9.93,46.92],[9.48,47.1],[9.63,47.35],[9.59,47.53],[9.9,47.58],[10.4,47.3],[10.54,47.57],[11.43,47.52],[12.14,47.7],[12.62,47.67],[12.93,47.47],[13.03,47.64],[12.88,48.29],[13.24,48.42],[13.6,48.88],[14.34,48.56],[14.9,48.96],[15.25,49.04],[16.03,48.73],[16.5,48.79],[16.96,48.6],[16.88,48.47],[16.98,48.12]]]}},
{"type":"Feature","id":"Belgium","properties":{"name":"Belgium"},"geometry":{"type":"Polygon","coordinates":[[[6.16,50.8],[6.04,50.13],[5.78,50.09],[5.67,49.53],[4.8,49.99],[4.29,49.91],[3.59,50.38],[3.12,50.78],[2.66,50.8],[2.51,51.15],[3.31,51.35],[3.32,51.35],[3.31,51.35],[4.05,51.27],[4.97,51.48],[5.61,51.04],[6.16,50.8]]]}},
{"type":"Feature","id":"Brazil","properties":{"name":"Brazil"},"geometry":{"type":"Polygon","coordinates":[[[-53.37,-33.77],[-53.65,-33.2],[-53.21,-32.73],[-53.79,-32.05],[-54.57,-31.49],[-55.6,-30.85],[-55.97,-30.88],[-56.98,-30.11],[-57.63,-30.22],[-56.29,-28.85],[-55.16,-27.88],[-54.49,-27.47],[-53.65,-26.92],[-53.63,-26.12],[-54.13,-25.55],[-54.63,-25.74],[-54.43,-25.16],[-54.29,-24.57],[-54.29,-24.02],[-54.65,-23.84],[-55.03,-24],[-55.4,-23.96],[-55.52,-23.57],[-55.61,-22.66],[-55.8,-22.36],[-56.47,-22.09],[-56.88,-22.28],[-57.94,-22.09],[-57.87,-20.73],[-58.17,-20.18],[-57.85,-19.97],[-57.95,-19.4],[-57.68,-18.96],[-57.5,-18.17],[-57.73,-17.55],[-58.28,-17.27],[-58.39,-16.88],[-58.24,-16.3],[-60.16,-16.26],[-60.54,-15.09],[-60.25,-15.08],[-60.26,-14.65],[-60.46,-14.35],[-60.5,-13.78],[-61.08,-13.48],[-61.71,-13.49],[-62.13,-13.2],[-62.8,-13],[-63.2,-12.63],[-64.32,-12.46],[-65.4,-11.57],[-65.32,-10.9],[-65.44,-10.51],[-65.34,-9.76],[-66.65,-9.93],[-67.17,-10.31],[-68.05,-10.71],[-68.27,-11.01],[-68.79,-11.04],[-69.53,-10.95],[-70.09,-11.12],[-70.55,-11.01],[-70.48,-9.49],[-71.3,-10.08],[-72.18,-10.05],[-72.56,-9.52],[-73.23,-9.46],[-73.02,-9.03],[-73.57,-8.42],[-73.99,-7.52],[-73.72,-7.34],[-73.72,-6.92],[-73.12,-6.63],[-73.22,-6.09],[-72.96,-5.74],[-72.89,-5.27],[-71.75,-4.59],[-70.93,-4.4],[-70.79,-4.25],[-69.89,-4.3],[-69.44,-1.56],[-69.42,-1.12],[-69.58,-0.55],[-70.02,-0.19],[-70.02,0.54],[-69.45,0.71],[-69.25,0.6],[-69.22,0.99],[-69.8,1.09],[-69.82,1.71],[-67.87,1.69],[-67.54,2.04],[-67.26,1.72],[-67.07,1.13],[-66.88,1.25],[-66.33,0.72],[-65.55,0.79],[-65.35,1.1],[-64.61,1.33],[-64.2,1.49],[-64.08,1.92],[-63.37,2.2],[-63.42,2.41],[-64.27,2.5],[-64.41,3.13],[-64.37,3.8],[-64.82,4.06],[-64.63,4.15],[-63.89,4.02],[-63.09,3.77],[-62.8,4.01],[-62.09,4.16],[-60.97,4.54],[-60.6,4.92],[-60.73,5.2],[-60.21,5.24],[-59.98,5.01],[-60.11,4.57],[-59.77,4.42],[-59.54,3.96],[-59.82,3.61],[-59.97,2.76],[-59.72,2.25],[-59.65,1.79],[-59.03,1.32],[-58.54,1.27],[-58.43,1.46],[-58.11,1.51],[-57.66,1.68],[-57.34,1.95],[-56.78,1.86],[-56.54,1.9],[-56,1.82],[-55.91,2.02],[-56.07,2.22],[-55.97,2.51],[-55.57,2.42],[-55.1,2.52],[-54.52,2.31],[-54.09,2.11],[-53.78,2.38],[-53.55,2.33],[-53.42,2.05],[-52.94,2.12],[-52.56,2.5],[-52.25,3.24],[-51.66,4.16],[-51.32,4.2],[-51.07,3.65],[-50.51,1.9],[-49.97,1.74],[-49.95,1.05],[-50.7,0.22],[-50.39,-0.08],[-48.62,-0.24],[-48.58,-1.24],[-47.82,-0.58],[-46.57,-0.94],[-44.91,-1.55],[-44.42,-2.14],[-44.58,-2.69],[-43.42,-2.38],[-41.47,-2.91],[-39.98,-2.87],[-38.5,-3.7],[-37.22,-4.82],[-36.45,-5.11],[-35.6,-5.15],[-35.24,-5.46],[-34.9,-6.74],[-34.73,-7.34],[-35.13,-9],[-35.64,-9.65],[-37.05,-11.04],[-37.68,-12.17],[-38.42,-13.04],[-38.67,-13.06],[-38.95,-13.79],[-38.88,-15.67],[-39.16,-17.21],[-39.27,-17.87],[-39.58,-18.26],[-39.76,-19.6],[-40.77,-20.9],[-40.94,-21.94],[-41.75,-22.37],[-41.99,-22.97],[-43.07,-22.97],[-44.65,-23.35],[-45.35,-23.8],[-46.47,-24.09],[-47.65,-24.89],[-48.5,-25.88],[-48.64,-26.62],[-48.47,-27.18],[-48.66,-28.19],[-48.89,-28.67],[-49.59,-29.22],[-50.7,-30.98],[-51.58,-31.78],[-52.26,-32.25],[-52.71,-33.2],[-53.37,-33.77]]]}},
{"type":"Feature","id":"Canada","properties":{"name":"Canada"},"geometry":{"type":"MultiPolygon","coordinates":[[[[-122.84,49],[-122.97,49],[-124.91,49.98],[-125.62,50.42],[-127.44,50.83],[-127.99,51.72],[-127.85,52.33],[-129.13,52.76],[-129.31,53.56],[-130.51,54.29],[-130.54,54.8],[-129.98,55.29],[-130.01,55.92],[-131.71,56.55],[-132.73,57.69],[-133.36,58.41],[-134.27,58.86],[-134.94,59.27],[-135.48,59.79],[-136.48,59.46],[-137.45,58.91],[-138.34,59.56],[-139.04,60],[-140.01,60.28],[-141,60.31],[-140.99,66],[-140.99,69.71],[-139.12,69.47],[-137.55,68.99],[-136.5,68.9],[-135.63,69.32],[-134.41,69.63],[-132.93,69.51],[-131.43,69.94],[-129.79,70.19],[-129.11,69.78],[-128.36,70.01],[-128.14,70.48],[-127.45,70.38],[-125.76,69.48],[-124.42,70.16],[-124.29,69.4],[-123.06,69.56],[-122.68,69.86],[-121.47,69.8],[-119.94,69.38],[-117.6,69.01],[-116.23,68.84],[-115.25,68.91],[-113.9,68.4],[-115.3,67.9],[-113.5,67.69],[-110.8,67.81],[-109.95,67.98],[-108.88,67.38],[-107.79,67.89],[-108.81,68.31],[-108.17,68.65],[-106.95,68.7],[-106.15,68.8],[-105.34,68.56],[-104.34,68.02],[-103.22,68.1],[-101.45,67.65],[-99.9,67.81],[-98.44,67.78],[-98.56,68.4],[-97.67,68.58],[-96.12,68.24],[-96.13,67.29],[-95.49,68.09],[-94.68,68.06],[-94.23,69.07],[-95.3,69.69],[-96.47,70.09],[-96.39,71.19],[-95.21,71.92],[-93.89,71.76],[-92.88,71.32],[-91.52,70.19],[-92.41,69.7],[-90.55,69.5],[-90.55,68.47],[-89.22,69.26],[-88.02,68.62],[-88.32,67.87],[-87.35,67.2],[-86.31,67.92],[-85.58,68.78],[-85.52,69.88],[-84.1,69.81],[-82.62,69.66],[-81.28,69.16],[-81.22,68.67],[-81.96,68.13],[-81.26,67.6],[-81.39,67.11],[-83.34,66.41],[-84.74,66.26],[-85.77,66.56],[-86.07,66.06],[-87.03,65.21],[-87.32,64.78],[-88.48,64.1],[-89.91,64.03],[-90.7,63.61],[-90.77,62.96],[-91.93,62.84],[-93.16,62.02],[-94.24,60.9],[-94.63,60.11],[-94.68,58.95],[-93.22,58.78],[-92.76,57.85],[-92.3,57.09],[-90.9,57.28],[-89.04,56.85],[-88.04,56.47],[-87.32,56],[-86.07,55.72],[-85.01,55.3],[-83.36,55.24],[-82.27,55.15],[-82.44,54.28],[-82.13,53.28],[-81.4,52.16],[-79.91,51.21],[-79.14,51.53],[-78.6,52.56],[-79.12,54.14],[-79.83,54.67],[-78.23,55.14],[-77.1,55.84],[-76.54,56.53],[-76.62,57.2],[-77.3,58.05],[-78.52,58.8],[-77.34,59.85],[-77.77,60.76],[-78.11,62.32],[-77.41,62.55],[-75.7,62.28],[-74.67,62.18],[-73.84,62.44],[-72.91,62.11],[-71.68,61.53],[-71.37,61.14],[-69.59,61.06],[-69.62,60.22],[-69.29,58.96],[-68.37,58.8],[-67.65,58.21],[-66.2,58.77],[-65.25,59.87],[-64.58,60.34],[-63.8,59.44],[-62.5,58.17],[-61.4,56.97],[-61.8,56.34],[-60.47,55.78],[-59.57,55.2],[-57.98,54.95],[-57.33,54.63],[-56.94,53.78],[-56.16,53.65],[-55.76,53.27],[-55.68,52.15],[-56.41,51.77],[-57.13,51.42],[-58.77,51.06],[-60.03,50.24],[-61.72,50.08],[-63.86,50.29],[-65.36,50.3],[-66.4,50.23],[-67.24,49.51],[-68.51,49.07],[-69.95,47.74],[-71.1,46.82],[-70.26,46.99],[-68.65,48.3],[-66.55,49.13],[-65.06,49.23],[-64.17,48.74],[-65.12,48.07],[-64.8,46.99],[-64.47,46.24],[-63.17,45.74],[-61.52,45.88],[-60.52,47.01],[-60.45,46.28],[-59.8,45.92],[-61.04,45.27],[-63.25,44.67],[-64.25,44.27],[-65.36,43.55],[-66.12,43.62],[-66.16,44.47],[-64.43,45.29],[-66.03,45.26],[-67.14,45.14],[-67.79,45.7],[-67.79,47.07],[-68.23,47.35],[-68.9,47.19],[-69.24,47.45],[-70,46.69],[-70.31,45.92],[-70.66,45.46],[-71.08,45.31],[-71.4,45.26],[-71.51,45.01],[-73.35,45.01],[-74.87,45],[-75.32,44.82],[-76.37,44.1],[-76.5,44.02],[-76.82,43.63],[-77.74,43.63],[-78.72,43.63],[-79.17,43.47],[-79.01,43.27],[-78.92,42.97],[-78.94,42.86],[-80.25,42.37],[-81.28,42.21],[-82.44,41.68],[-82.69,41.68],[-83.03,41.83],[-83.14,41.98],[-83.12,42.08],[-82.9,42.43],[-82.43,42.98],[-82.14,43.57],[-82.34,44.44],[-82.55,45.35],[-83.59,45.82],[-83.47,45.99],[-83.62,46.12],[-83.89,46.12],[-84.09,46.28],[-84.14,46.51],[-84.34,46.41],[-84.6,46.44],[-84.54,46.54],[-84.78,46.64],[-84.88,46.9],[-85.65,47.22],[-86.46,47.55],[-87.44,47.94],[-88.38,48.3],[-89.27,48.02],[-89.6,48.01],[-90.83,48.27],[-91.64,48.14],[-92.61,48.45],[-93.63,48.61],[-94.33,48.67],[-94.64,48.84],[-94.82,49.39],[-95.16,49.38],[-95.16,49],[-97.23,49],[-100.65,49],[-104.05,49],[-107.05,49],[-110.05,49],[-113,49],[-116.05,49],[-117.03,49],[-120,49],[-122.84,49]]],[[[-83.99,62.45],[-83.25,62.91],[-81.88,62.9],[-81.9,62.71],[-83.07,62.16],[-83.77,62.18],[-83.99,62.45]]],[[[-80.32,62.09],[-79.93,62.39],[-79.52,62.36],[-79.27,62.16],[-79.66,61.63],[-80.1,61.72],[-80.36,62.02],[-80.32,62.09]]],[[[-55.6,51.32],[-56.13,50.69],[-56.8,49.81],[-56.14,50.15],[-55.47,49.94],[-55.82,49.59],[-54.94,49.31],[-54.47,49.56],[-53.48,49.25],[-53.79,48.52],[-53.09,48.69],[-52.96,48.16],[-52.65,47.54],[-53.07,46.66],[-53.52,46.62],[-54.18,46.81],[-53.96,47.63],[-54.24,47.75],[-55.4,46.88],[-56,46.92],[-55.29,47.39],[-56.25,47.63],[-57.33,47.57],[-59.27,47.6],[-59.42,47.9],[-58.8,48.25],[-59.23,48.52],[-58.39,49.13],[-57.36,50.72],[-56.74,51.29],[-55.87,51.63],[-55.41,51.59],[-55.6,51.32]]],[[[-83.88,65.11],[-82.79,64.77],[-81.64,64.46],[-81.55,63.98],[-80.82,64.06],[-80.1,63.73],[-80.99,63.41],[-82.55,63.65],[-83.11,64.1],[-84.1,63.57],[-85.52,63.05],[-85.87,63.64],[-87.22,63.54],[-86.35,64.04],[-86.22,64.82],[-85.88,65.74],[-85.16,65.66],[-84.98,65.22],[-84.46,65.37],[-83.88,65.11]]],[[[-78.77,72.35],[-77.82,72.75],[-75.61,72.24],[-74.23,71.77],[-74.1,71.33],[-72.24,71.56],[-71.2,70.92],[-68.79,70.53],[-67.91,70.12],[-66.97,69.19],[-68.81,68.72],[-66.45,68.07],[-64.86,67.85],[-63.42,66.93],[-61.85,66.86],[-62.16,66.16],[-63.92,65],[-65.15,65.43],[-66.72,66.39],[-68.02,66.26],[-68.14,65.69],[-67.09,65.11],[-65.73,64.65],[-65.32,64.38],[-64.67,63.39],[-65.01,62.67],[-66.28,62.95],[-68.78,63.75],[-67.37,62.88],[-66.33,62.28],[-66.17,61.93],[-68.88,62.33],[-71.02,62.91],[-72.24,63.4],[-71.89,63.68],[-73.38,64.19],[-74.83,64.68],[-74.82,64.39],[-77.71,64.23],[-78.56,64.57],[-77.9,65.31],[-76.02,65.33],[-73.96,65.45],[-74.29,65.81],[-73.94,66.31],[-72.65,67.28],[-72.93,67.73],[-73.31,68.07],[-74.84,68.55],[-76.87,68.89],[-76.23,69.15],[-77.29,69.77],[-78.17,69.83],[-78.96,70.17],[-79.49,69.87],[-81.31,69.74],[-84.94,69.97],[-87.06,70.26],[-88.68,70.41],[-89.51,70.76],[-88.47,71.22],[-89.89,71.22],[-90.21,72.24],[-89.44,73.13],[-88.41,73.54],[-85.83,73.8],[-86.56,73.16],[-85.77,72.53],[-84.85,73.34],[-82.32,73.75],[-80.6,72.72],[-80.75,72.06],[-78.77,72.35]]],[[[-132.71,54.04],[-131.75,54.12],[-132.05,52.98],[-131.18,52.18],[-131.58,52.18],[-132.18,52.64],[-132.55,53.1],[-133.05,53.41],[-133.24,53.85],[-133.18,54.17],[-132.71,54.04]]],[[[-123.51,48.51],[-124.01,48.37],[-125.66,48.83],[-125.95,49.18],[-126.85,49.53],[-127.03,49.81],[-128.06,49.99],[-128.44,50.54],[-128.36,50.77],[-127.31,50.55],[-126.7,50.4],[-125.76,50.3],[-125.42,49.95],[-124.92,49.48],[-123.92,49.06],[-123.51,48.51]]],[[[-91.59,81.89],[-90.1,82.09],[-88.93,82.12],[-86.97,82.28],[-85.5,82.65],[-84.26,82.6],[-83.18,82.32],[-82.42,82.86],[-81.1,83.02],[-79.31,83.13],[-76.25,83.17],[-75.72,83.06],[-72.83,83.23],[-70.67,83.17],[-68.5,83.11],[-65.83,83.03],[-63.68,82.9],[-61.85,82.63],[-61.89,82.36],[-64.33,81.93],[-66.75,81.73],[-67.66,81.5],[-65.48,81.51],[-67.84,80.9],[-69.47,80.62],[-71.18,79.8],[-73.24,79.63],[-73.88,79.43],[-76.91,79.32],[-75.53,79.2],[-76.22,79.02],[-75.39,78.53],[-76.34,78.18],[-77.89,77.9],[-78.36,77.51],[-79.76,77.21],[-79.62,76.98],[-77.91,77.02],[-77.89,76.78],[-80.56,76.18],[-83.17,76.45],[-86.11,76.3],[-87.6,76.42],[-89.49,76.47],[-89.62,76.95],[-87.77,77.18],[-88.26,77.9],[-87.65,77.97],[-84.98,77.54],[-86.34,78.18],[-87.96,78.37],[-87.15,78.76],[-85.38,79],[-85.09,79.35],[-86.51,79.74],[-86.93,80.25],[-84.2,80.21],[-83.41,80.1],[-81.85,80.46],[-84.1,80.58],[-87.6,80.52],[-89.37,80.86],[-90.2,81.26],[-91.37,81.55],[-91.59,81.89]]],[[[-75.22,67.44],[-75.87,67.15],[-76.99,67.1],[-77.24,67.59],[-76.81,68.15],[-75.9,68.29],[-75.11,68.01],[-75.1,67.58],[-75.22,67.44]]],[[[-96.26,69.49],[-95.65,69.11],[-96.27,68.76],[-97.62,69.06],[-98.43,68.95],[-99.8,69.4],[-98.92,69.71],[-98.22,70.14],[-97.16,69.86],[-96.56,69.68],[-96.26,69.49]]],[[[-64.52,49.87],[-64.17,49.96],[-62.86,49.71],[-61.84,49.29],[-61.81,49.11],[-62.29,49.09],[-63.59,49.4],[-64.52,49.87]]],[[[-64.01,47.04],[-63.66,46.55],[-62.94,46.42],[-62.01,46.44],[-62.5,46.03],[-62.87,45.97],[-64.14,46.39],[-64.39,46.73],[-64.01,47.04]]]]}},
{"type":"Feature","id":"Denmark","properties":{"name":"Denmark"},"geometry":{"type":"MultiPolygon","coordinates":[[[[9.92,54.98],[9.28,54.83],[8.53,54.96],[8.12,55.52],[8.09,56.54],[8.26,56.81],[8.54,57.11],[9.42,57.17],[9.78,57.45],[10.58,57.73],[10.55,57.22],[10.25,56.89],[10.37,56.61],[10.91,56.46],[10.67,56.08],[10.37,56.19],[9.65,55.47],[9.92,54.98]]],[[[12.37,56.11],[12.69,55.61],[12.09,54.8],[11.04,55.36],[10.9,55.78],[12.37,56.11]]]]}},
{"type":"Feature","id":"Finland","properties":{"name":"Finland"},"geometry":{"type":"Polygon","coordinates":[[[28.59,69.06],[28.45,68.36],[29.98,67.7],[29.05,66.94],[30.22,65.81],[29.54,64.95],[30.44,64.2],[30.04,63.55],[31.52,62.87],[31.14,62.36],[30.21,61.78],[28.07,60.5],[26.26,60.42],[24.5,60.06],[22.87,59.85],[22.29,60.39],[21.32,60.72],[21.54,61.71],[21.06,62.61],[21.54,63.19],[22.44,63.82],[24.73,64.9],[25.4,65.11],[25.29,65.53],[23.9,66.01],[23.57,66.4],[23.54,67.94],[21.98,68.62],[20.65,69.11],[21.24,69.37],[22.36,68.84],[23.66,68.89],[24.74,68.65],[25.69,69.09],[26.18,69.83],[27.73,70.16],[29.02,69.77],[28.59,69.06]]]}},
{"type":"Feature","id":"France","properties":{"name":"France"},"geometry":{"type":"MultiPolygon","coordinates":[[[[6.19,49.46],[6.66,49.2],[8.1,49.02],[7.59,48.33],[7.47,47.62],[7.19,47.45],[6.74,47.54],[6.77,47.29],[6.04,46.73],[6.02,46.27],[6.5,46.43],[6.84,45.99],[6.8,45.71],[7.1,45.33],[6.75,45.03],[7.01,44.25],[7.55,44.13],[7.44,43.69],[6.53,43.13],[4.56,43.4],[3.1,43.08],[2.99,42.47],[1.83,42.34],[0.7,42.8],[0.34,42.58],[-1.5,43.03],[-1.9,43.42],[-1.38,44.02],[-1.19,46.01],[-2.23,47.06],[-2.96,47.57],[-4.49,47.95],[-4.59,48.68],[-3.3,48.9],[-1.62,48.64],[-1.93,49.78],[-0.99,49.35],[1.34,50.13],[1.64,50.95],[2.51,51.15],[2.66,50.8],[3.12,50.78],[3.59,50.38],[4.29,49.91],[4.8,49.99],[5.67,49.53],[5.9,49.44],[6.19,49.46]]],[[[8.75,42.63],[9.39,43.01],[9.56,42.15],[9.23,41.38],[8.78,41.58],[8.54,42.26],[8.75,42.63]]]]}},
{"type":"Feature","id":"Germany","properties":{"name":"Germany"},"geometry":{"type":"Polygon","coordinates":[[[14.12,53.76],[14.35,53.25],[14.07,52.98],[14.44,52.62],[14.69,52.09],[14.61,51.75],[15.02,51.11],[14.57,51],[14.31,51.12],[14.06,50.93],[13.34,50.73],[12.97,50.48],[12.24,50.27],[12.42,49.97],[12.52,49.55],[13.03,49.31],[13.6,48.88],[13.24,48.42],[12.88,48.29],[13.03,47.64],[12.93,47.47],[12.62,47.67],[12.14,47.7],[11.43,47.52],[10.54,47.57],[10.4,47.3],[9.9,47.58],[9.59,47.53],[8.52,47.83],[8.32,47.61],[7.47,47.62],[7.59,48.33],[8.1,49.02],[6.66,49.2],[6.19,49.46],[6.24,49.9],[6.04,50.13],[6.16,50.8],[5.99,51.85],[6.59,51.85],[6.84,52.23],[7.09,53.14],[6.91,53.48],[7.1,53.69],[7.94,53.75],[8.12,53.53],[8.8,54.02],[8.57,54.4],[8.53,54.96],[9.28,54.83],[9.92,54.98],[9.94,54.6],[10.95,54.36],[10.94,54.01],[11.96,54.2],[12.52,54.47],[13.65,54.08],[14.12,53.76]]]}},
{"type":"Feature","id":"Ireland","properties":{"name":"Ireland"},"geometry":{"type":"Polygon","coordinates":[[[-6.2,53.87],[-6.03,53.15],[-6.79,52.26],[-8.56,51.67],[-9.98,51.82],[-9.17,52.86],[-9.69,53.88],[-8.33,54.66],[-7.57,55.13],[-7.37,54.6],[-7.57,54.06],[-6.95,54.07],[-6.2,53.87]]]}},
{"type":"Feature","id":"Italy","properties":{"name":"Italy"},"geometry":{"type":"MultiPolygon","coordinates":[[[[10.44,46.89],[11.05,46.75],[11.16,46.94],[12.15,47.12],[12.38,46.77],[13.81,46.51],[13.7,46.02],[13.94,45.59],[13.14,45.74],[12.33,45.38],[12.38,44.89],[12.26,44.6],[12.59,44.09],[13.53,43.59],[14.03,42.76],[15.14,41.96],[15.93,41.96],[16.17,41.74],[15.89,41.54],[16.79,41.18],[17.52,40.88],[18.38,40.36],[18.48,40.17],[18.29,39.81],[17.74,40.28],[16.87,40.44],[16.45,39.8],[17.17,39.42],[17.05,38.9],[16.64,38.84],[16.1,37.99],[15.68,37.91],[15.69,38.21],[15.89,38.75],[16.11,38.96],[15.72,39.54],[15.41,40.05],[15,40.17],[14.7,40.6],[14.06,40.79],[13.63,41.19],[12.89,41.25],[12.11,41.7],[11.19,42.36],[10.51,42.93],[10.2,43.92],[9.7,44.04],[8.89,44.37],[8.43,44.23],[7.85,43.77],[7.44,43.69],[7.55,44.13],[7.01,44.25],[6.75,45.03],[7.1,45.33],[6.8,45.71],[6.84,45.99],[7.27,45.78],[7.76,45.82],[8.32,46.16],[8.49,46.01],[8.97,46.04],[9.18,46.44],[9.92,46.31],[10.36,46.48],[10.44,46.89]]],[[[14.76,38.14],[15.52,38.23],[15.16,37.44],[15.31,37.13],[15.1,36.62],[14.34,37],[13.83,37.1],[12.43,37.61],[12.57,38.13],[13.74,38.03],[14.76,38.14]]],[[[8.71,40.9],[9.21,41.21],[9.81,40.5],[9.67,39.18],[9.21,39.24],[8.81,38.91],[8.43,39.17],[8.39,40.38],[8.16,40.95],[8.71,40.9]]]]}},
{"type":"Feature","id":"Mexico","properties":{"name":"Mexico"},"geometry":{"type":"Polygon","coordinates":[[[-117.13,32.54],[-115.99,32.61],[-114.72,32.72],[-114.81,32.53],[-113.3,32.04],[-111.02,31.33],[-109.03,31.34],[-108.24,31.34],[-108.24,31.75],[-106.51,31.75],[-106.14,31.4],[-105.63,31.08],[-105.04,30.64],[-104.71,30.12],[-104.46,29.57],[-103.94,29.27],[-103.11,28.97],[-102.48,29.76],[-101.66,29.78],[-100.96,29.38],[-100.46,28.7],[-100.11,28.11],[-99.52,27.54],[-99.3,26.84],[-99.02,26.37],[-98.24,26.06],[-97.53,25.84],[-97.14,25.87],[-97.53,24.99],[-97.7,24.27],[-97.78,22.93],[-97.87,22.44],[-97.7,21.9],[-97.39,21.41],[-97.19,20.64],[-96.53,19.89],[-96.29,19.32],[-95.9,18.83],[-94.84,18.56],[-94.43,18.14],[-93.55,18.42],[-92.79,18.52],[-92.04,18.7],[-91.41,18.88],[-90.77,19.28],[-90.53,19.87],[-90.45,20.71],[-90.28,21],[-89.6,21.26],[-88.54,21.49],[-87.66,21.46],[-87.05,21.54],[-86.81,21.33],[-86.85,20.85],[-87.38,20.26],[-87.62,19.65],[-87.44,19.47],[-87.59,19.04],[-87.84,18.26],[-88.09,18.52],[-88.3,18.5],[-88.49,18.49],[-88.85,17.88],[-89.03,18],[-89.15,17.96],[-89.14,17.81],[-90.07,17.82],[-91,17.82],[-91,17.25],[-91.45,17.25],[-91.08,16.92],[-90.71,16.69],[-90.6,16.47],[-90.44,16.41],[-90.46,16.07],[-91.75,16.07],[-92.23,15.25],[-92.09,15.06],[-92.2,14.83],[-92.23,14.54],[-93.36,15.62],[-93.88,15.94],[-94.69,16.2],[-95.25,16.13],[-96.05,15.75],[-96.56,15.65],[-97.26,15.92],[-98.01,16.11],[-98.95,16.57],[-99.7,16.71],[-100.83,17.17],[-101.67,17.65],[-101.92,17.92],[-102.48,17.98],[-103.5,18.29],[-103.92,18.75],[-104.99,19.32],[-105.49,19.95],[-105.73,20.43],[-105.4,20.53],[-105.5,20.82],[-105.27,21.08],[-105.27,21.42],[-105.6,21.87],[-105.69,22.27],[-106.03,22.77],[-106.91,23.77],[-107.92,24.55],[-108.4,25.17],[-109.26,25.58],[-109.44,25.82],[-109.29,26.44],[-109.8,26.68],[-110.39,27.16],[-110.64,27.86],[-111.18,27.94],[-111.76,28.47],[-112.23,28.95],[-112.27,29.27],[-112.81,30.02],[-113.16,30.79],[-113.15,31.17],[-113.87,31.57],[-114.21,31.52],[-114.78,31.8],[-114.94,31.39],[-114.77,30.91],[-114.67,30.16],[-114.33,29.75],[-113.59,29.06],[-113.42,28.83],[-113.27,28.75],[-113.14,28.41],[-112.96,28.43],[-112.76,27.78],[-112.46,27.53],[-112.24,27.17],[-111.62,26.66],[-111.28,25.73],[-110.99,25.29],[-110.71,24.83],[-110.66,24.3],[-110.17,24.27],[-109.77,23.81],[-109.41,23.36],[-109.43,23.19],[-109.85,22.82],[-110.03,22.82],[-110.3,23.43],[-110.95,24],[-111.67,24.48],[-112.18,24.74],[-112.15,25.47],[-112.3,26.01],[-112.78,26.32],[-113.46,26.77],[-113.6,26.64],[-113.85,26.9],[-114.47,27.14],[-115.06,27.72],[-114.98,27.8],[-114.57,27.74],[-114.2,28.12],[-114.16,28.57],[-114.93,29.28],[-115.52,29.56],[-115.89,30.18],[-116.26,30.84],[-116.72,31.64],[-117.13,32.54]]]}},
{"type":"Feature","id":"Norway","properties":{"name":"Norway"},"geometry":{"type":"Polygon","coordinates":[[[31.1,69.56],[29.4,69.16],[28.59,69.06],[29.02,69.77],[27.73,70.16],[26.18,69.83],[25.69,69.09],[24.74,68.65],[23.66,68.89],[22.36,68.84],[21.24,69.37],[20.65,69.11],[20.03,69.07],[19.88,68.41],[17.99,68.57],[17.73,68.01],[16.77,68.01],[16.11,67.3],[15.11,66.19],[13.56,64.79],[13.92,64.45],[13.57,64.05],[12.58,64.07],[11.93,63.13],[11.99,61.8],[12.63,61.29],[12.3,60.12],[11.47,59.43],[11.03,58.86],[10.36,59.47],[8.38,58.31],[7.05,58.08],[5.67,58.59],[5.31,59.66],[4.99,61.97],[5.91,62.61],[8.55,63.45],[10.53,64.49],[12.36,65.88],[14.76,67.81],[16.44,68.56],[19.18,69.82],[21.38,70.26],[23.02,70.2],[24.55,71.03],[26.37,70.99],[28.17,71.19],[31.29,70.45],[30.01,70.19],[31.1,69.56]]]}},
{"type":"Feature","id":"Poland","properties":{"name":"Poland"},"geometry":{"type":"Polygon","coordinates":[[[23.48,53.91],[23.53,53.47],[23.8,53.09],[23.8,52.69],[23.2,52.49],[23.51,52.02],[23.53,51.58],[24.03,50.71],[23.92,50.42],[23.43,50.31],[22.52,49.48],[22.78,49.03],[22.56,49.09],[21.61,49.47],[20.89,49.33],[20.42,49.43],[19.83,49.22],[19.32,49.57],[18.91,49.44],[18.85,49.5],[18.39,49.99],[17.65,50.05],[17.55,50.36],[16.87,50.47],[16.72,50.22],[16.18,50.42],[16.24,50.7],[15.49,50.78],[15.02,51.11],[14.61,51.75],[14.69,52.09],[14.44,52.62],[14.07,52.98],[14.35,53.25],[14.12,53.76],[14.8,54.05],[16.36,54.51],[17.62,54.85],[18.62,54.68],[18.7,54.44],[19.66,54.43],[20.89,54.31],[22.73,54.33],[23.24,54.22],[23.48,53.91]]]}},
{"type":"Feature","id":"Portugal","properties":{"name":"Portugal"},"geometry":{"type":"Polygon","coordinates":[[[-9.03,41.88],[-8.67,42.13],[-8.26,42.28],[-8.01,41.79],[-7.42,41.79],[-7.25,41.92],[-6.67,41.88],[-6.39,41.38],[-6.85,41.11],[-6.86,40.33],[-7.03,40.18],[-7.07,39.71],[-7.5,39.63],[-7.1,39.03],[-7.37,38.37],[-7.03,38.08],[-7.17,37.8],[-7.54,37.43],[-7.45,37.1],[-7.86,36.84],[-8.38,36.98],[-8.9,36.87],[-8.75,37.65],[-8.84,38.27],[-9.29,38.36],[-9.53,38.74],[-9.45,39.39],[-9.05,39.76],[-8.98,40.16],[-8.77,40.76],[-8.79,41.18],[-8.99,41.54],[-9.03,41.88]]]}},
{"type":"Feature","id":"Spain","properties":{"name":"Spain"},"geometry":{"type":"Polygon","coordinates":[[[-7.45,37.1],[-7.54,37.43],[-7.17,37.8],[-7.03,38.08],[-7.37,38.37],[-7.1,39.03],[-7.5,39.63],[-7.07,39.71],[-7.03,40.18],[-6.86,40.33],[-6.85,41.11],[-6.39,41.38],[-6.67,41.88],[-7.25,41.92],[-7.42,41.79],[-8.01,41.79],[-8.26,42.28],[-8.67,42.13],[-9.03,41.88],[-8.98,42.59],[-9.39,43.03],[-7.98,43.75],[-6.75,43.57],[-5.41,43.57],[-4.35,43.4],[-3.52,43.46],[-1.9,43.42],[-1.5,43.03],[0.34,42.58],[0.7,42.8],[1.83,42.34],[2.99,42.47],[3.04,41.89],[2.09,41.23],[0.81,41.01],[0.72,40.68],[0.11,40.12],[-0.28,39.31],[0.11,38.74],[-0.47,38.29],[-0.68,37.64],[-1.44,37.44],[-2.15,36.67],[-3.42,36.66],[-4.37,36.68],[-5,36.32],[-5.38,35.95],[-5.87,36.03],[-6.24,36.37],[-6.52,36.94],[-7.45,37.1]]]}},
{"type":"Feature","id":"Sweden","properties":{"name":"Sweden"},"geometry":{"type":"Polygon","coordinates":[[[11.03,58.86],[11.47,59.43],[12.3,60.12],[12.63,61.29],[11.99,61.8],[11.93,63.13],[12.58,64.07],[13.57,64.05],[13.92,64.45],[13.56,64.79],[15.11,66.19],[16.11,67.3],[16.77,68.01],[17.73,68.01],[17.99,68.57],[19.88,68.41],[20.03,69.07],[20.65,69.11],[21.98,68.62],[23.54,67.94],[23.57,66.4],[23.9,66.01],[22.18,65.72],[21.21,65.03],[21.37,64.41],[19.78,63.61],[17.85,62.75],[17.12,61.34],[17.83,60.64],[18.79,60.08],[17.87,58.95],[16.83,58.72],[16.45,57.04],[15.88,56.1],[14.67,56.2],[14.1,55.41],[12.94,55.36],[12.63,56.31],[11.79,57.44],[11.03,58.86]]]}},
{"type":"Feature","id":"Switzerland","properties":{"name":"Switzerland"},"geometry":{"type":"Polygon","coordinates":[[[9.59,47.53],[9.63,47.35],[9.48,47.1],[9.93,46.92],[10.44,46.89],[10.36,46.48],[9.92,46.31],[9.18,46.44],[8.97,46.04],[8.49,46.01],[8.32,46.16],[7.76,45.82],[7.27,45.78],[6.84,45.99],[6.5,46.43],[6.02,46.27],[6.04,46.73],[6.77,47.29],[6.74,47.54],[7.19,47.45],[7.47,47.62],[8.32,47.61],[8.52,47.83],[9.59,47.53]]]}},
{"type":"Feature","id":"UK","properties":{"name":"UK"},"geometry":{"type":"MultiPolygon","coordinates":[[[[-6.2,53.87],[-6.95,54.07],[-7.57,54.06],[-7.37,54.6],[-7.57,55.13],[-6.73,55.17],[-5.66,54.55],[-6.2,53.87]]],[[[-3.09,53.4],[-2.95,53.99],[-3.61,54.6],[-3.63,54.62],[-4.84,54.79],[-5.08,55.06],[-4.72,55.51],[-5.05,55.78],[-5.59,55.31],[-5.64,56.28],[-6.15,56.79],[-5.79,57.82],[-5.01,58.63],[-4.21,58.55],[-3.01,58.64],[-4.07,57.55],[-3.06,57.69],[-1.96,57.68],[-2.22,56.87],[-3.12,55.97],[-2.09,55.91],[-2.01,55.8],[-1.11,54.62],[-0.43,54.46],[0.18,53.33],[0.47,52.93],[1.68,52.74],[1.56,52.1],[1.05,51.81],[1.45,51.29],[0.55,50.77],[-0.79,50.77],[-2.49,50.5],[-2.96,50.7],[-3.62,50.23],[-4.54,50.34],[-5.25,49.96],[-5.78,50.16],[-4.31,51.21],[-3.41,51.43],[-3.42,51.43],[-4.98,51.59],[-5.27,51.99],[-4.22,52.3],[-4.77,52.84],[-4.58,53.5],[-3.09,53.4]]]]}},
{"type":"Feature","id":"USA","properties":{"name":"USA"},"geometry":{"type":"MultiPolygon","coordinates":[[[[-122.84,49],[-120,49],[-117.03,49],[-116.05,49],[-113,49],[-110.05,49],[-107.05,49],[-104.05,49],[-100.65,49],[-97.23,49],[-95.16,49],[-95.16,49.38],[-94.82,49.39],[-94.64,48.84],[-94.33,48.67],[-93.63,48.61],[-92.61,48.45],[-91.64,48.14],[-90.83,48.27],[-89.6,48.01],[-89.27,48.02],[-88.38,48.3],[-87.44,47.94],[-86.46,47.55],[-85.65,47.22],[-84.88,46.9],[-84.78,46.64],[-84.54,46.54],[-84.6,46.44],[-84.34,46.41],[-84.14,46.51],[-84.09,46.28],[-83.89,46.12],[-83.62,46.12],[-83.47,45.99],[-83.59,45.82],[-82.55,45.35],[-82.34,44.44],[-82.14,43.57],[-82.43,42.98],[-82.9,42.43],[-83.12,42.08],[-83.14,41.98],[-83.03,41.83],[-82.69,41.68],[-82.44,41.68],[-81.28,42.21],[-80.25,42.37],[-78.94,42.86],[-78.92,42.97],[-79.01,43.27],[-79.17,43.47],[-78.72,43.63],[-77.74,43.63],[-76.82,43.63],[-76.5,44.02],[-76.37,44.1],[-75.32,44.82],[-74.87,45],[-73.35,45.01],[-71.51,45.01],[-71.4,45.26],[-71.08,45.31],[-70.66,45.46],[-70.31,45.92],[-70,46.69],[-69.24,47.45],[-68.9,47.19],[-68.23,47.35],[-67.79,47.07],[-67.79,45.7],[-67.14,45.14],[-66.96,44.81],[-68.03,44.33],[-69.06,43.98],[-70.12,43.68],[-70.65,43.09],[-70.81,42.87],[-70.82,42.34],[-70.49,41.81],[-70.08,41.78],[-70.18,42.15],[-69.88,41.92],[-69.97,41.64],[-70.64,41.48],[-71.12,41.49],[-71.86,41.32],[-72.29,41.27],[-72.88,41.22],[-73.71,40.93],[-72.24,41.12],[-71.94,40.93],[-73.34,40.63],[-73.98,40.63],[-73.95,40.75],[-74.26,40.47],[-73.96,40.43],[-74.18,39.71],[-74.91,38.94],[-74.98,39.2],[-75.2,39.25],[-75.53,39.5],[-75.32,38.96],[-75.07,38.78],[-75.06,38.4],[-75.38,38.02],[-75.94,37.22],[-76.03,37.26],[-75.72,37.94],[-76.23,38.32],[-76.35,39.15],[-76.54,38.72],[-76.33,38.08],[-76.99,38.24],[-76.3,37.92],[-76.26,36.97],[-75.97,36.9],[-75.87,36.55],[-75.73,35.55],[-76.36,34.81],[-77.4,34.51],[-78.05,33.93],[-78.55,33.86],[-79.06,33.49],[-79.2,33.16],[-80.3,32.51],[-80.86,32.03],[-81.34,31.44],[-81.49,30.73],[-81.31,30.04],[-80.98,29.18],[-80.54,28.47],[-80.53,28.04],[-80.06,26.88],[-80.09,26.21],[-80.13,25.82],[-80.38,25.21],[-80.68,25.08],[-81.17,25.2],[-81.33,25.64],[-81.71,25.87],[-82.24,26.73],[-82.71,27.5],[-82.86,27.89],[-82.65,28.55],[-82.93,29.1],[-83.71,29.94],[-84.1,30.09],[-85.11,29.64],[-85.29,29.69],[-85.77,30.15],[-86.4,30.4],[-87.53,30.27],[-88.42,30.38],[-89.18,30.32],[-89.59,30.16],[-89.41,29.89],[-89.43,29.49],[-89.22,29.29],[-89.41,29.16],[-89.78,29.31],[-90.15,29.12],[-90.88,29.15],[-91.63,29.68],[-92.5,29.55],[-93.23,29.78],[-93.85,29.71],[-94.69,29.48],[-95.6,28.74],[-96.59,28.31],[-97.14,27.83],[-97.37,27.38],[-97.38,26.69],[-97.33,26.21],[-97.14,25.87],[-97.53,25.84],[-98.24,26.06],[-99.02,26.37],[-99.3,26.84],[-99.52,27.54],[-100.11,28.11],[-100.46,28.7],[-100.96,29.38],[-101.66,29.78],[-102.48,29.76],[-103.11,28.97],[-103.94,29.27],[-104.46,29.57],[-104.71,30.12],[-105.04,30.64],[-105.63,31.08],[-106.14,31.4],[-106.51,31.75],[-108.24,31.75],[-108.24,31.34],[-109.03,31.34],[-111.02,31.33],[-113.3,32.04],[-114.81,32.53],[-114.72,32.72],[-115.99,32.61],[-117.13,32.54],[-117.3,33.05],[-117.94,33.62],[-118.41,33.74],[-118.52,34.03],[-119.08,34.08],[-119.44,34.35],[-120.37,34.45],[-120.62,34.61],[-120.74,35.16],[-121.71,36.16],[-122.55,37.55],[-122.51,37.78],[-122.95,38.11],[-123.73,38.95],[-123.87,39.77],[-124.4,40.31],[-124.18,41.14],[-124.21,42],[-124.53,42.77],[-124.14,43.71],[-124.02,44.62],[-123.9,45.52],[-124.08,46.86],[-124.4,47.72],[-124.69,48.18],[-124.57,48.38],[-123.12,48.04],[-122.59,47.1],[-122.34,47.36],[-122.5,48.18],[-122.84,49]]],[[[-155.4,20.08],[-155.22,19.99],[-155.06,19.86],[-154.81,19.51],[-154.83,19.45],[-155.22,19.24],[-155.54,19.08],[-155.69,18.92],[-155.94,19.06],[-155.91,19.34],[-156.07,19.7],[-156.02,19.81],[-155.85,19.98],[-155.92,20.17],[-155.86,20.27],[-155.79,20.25],[-155.4,20.08]]],[[[-156,20.76],[-156.08,20.64],[-156.41,20.57],[-156.59,20.78],[-156.7,20.86],[-156.71,20.93],[-156.61,21.01],[-156.26,20.92],[-156,20.76]]],[[[-156.76,21.18],[-156.79,21.07],[-157.33,21.1],[-157.25,21.22],[-156.76,21.18]]],[[[-158.03,21.72],[-157.94,21.65],[-157.65,21.32],[-157.71,21.26],[-157.78,21.28],[-158.13,21.31],[-158.25,21.54],[-158.29,21.58],[-158.03,21.72]]],[[[-159.37,22.21],[-159.35,21.98],[-159.46,21.88],[-159.8,22.07],[-159.75,22.14],[-159.6,22.24],[-159.37,22.21]]],[[[-166.47,60.38],[-165.67,60.29],[-165.58,59.91],[-166.19,59.75],[-166.85,59.94],[-167.46,60.21],[-166.47,60.38]]],[[[-153.23,57.97],[-152.56,57.9],[-152.14,57.59],[-153.01,57.12],[-154.01,56.73],[-154.52,56.99],[-154.67,57.46],[-153.76,57.82],[-153.23,57.97]]],[[[-140.99,69.71],[-140.99,66],[-141,60.31],[-140.01,60.28],[-139.04,60],[-138.34,59.56],[-137.45,58.91],[-136.48,59.46],[-135.48,59.79],[-134.94,59.27],[-134.27,58.86],[-133.36,58.41],[-132.73,57.69],[-131.71,56.55],[-130.01,55.92],[-129.98,55.29],[-130.54,54.8],[-131.09,55.18],[-131.97,55.5],[-132.25,56.37],[-133.54,57.18],[-134.08,58.12],[-135.04,58.19],[-136.63,58.21],[-137.8,58.5],[-139.87,59.54],[-140.83,59.73],[-142.57,60.08],[-143.96,60],[-145.93,60.46],[-147.11,60.88],[-148.22,60.67],[-148.02,59.98],[-148.57,59.91],[-149.73,59.71],[-150.61,59.37],[-151.72,59.16],[-151.86,59.74],[-151.41,60.73],[-150.35,61.03],[-150.62,61.28],[-151.9,60.73],[-152.58,60.06],[-154.02,59.35],[-153.29,58.86],[-154.23,58.15],[-155.31,57.73],[-156.31,57.42],[-156.56,56.98],[-158.12,56.46],[-158.43,55.99],[-159.6,55.57],[-160.29,55.64],[-161.22,55.36],[-162.24,55.02],[-163.07,54.69],[-164.79,54.4],[-164.94,54.57],[-163.85,55.04],[-162.87,55.35],[-161.8,55.89],[-160.56,56.01],[-160.07,56.42],[-158.68,57.02],[-158.46,57.22],[-157.72,57.57],[-157.55,58.33],[-157.04,58.92],[-158.19,58.62],[-158.52,58.79],[-159.06,58.42],[-159.71,58.93],[-159.98,58.57],[-160.36,59.07],[-161.36,58.67],[-161.97,58.67],[-162.05,59.27],[-161.87,59.63],[-162.52,59.99],[-163.82,59.8],[-164.66,60.27],[-165.35,60.51],[-165.35,61.07],[-166.12,61.5],[-165.73,62.07],[-164.92,62.63],[-164.56,63.15],[-163.75,63.22],[-163.07,63.06],[-162.26,63.54],[-161.53,63.46],[-160.77,63.77],[-160.96,64.22],[-161.52,64.4],[-160.78,64.79],[-161.39,64.78],[-162.45,64.56],[-162.76,64.34],[-163.55,64.56],[-164.96,64.45],[-166.43,64.69],[-166.85,65.09],[-168.11,65.67],[-166.71,66.09],[-164.47,66.58],[-163.65,66.58],[-163.79,66.08],[-161.68,66.12],[-162.49,66.74],[-163.72,67.12],[-164.43,67.62],[-165.39,68.04],[-166.76,68.36],[-166.2,68.88],[-164.43,68.92],[-163.17,69.37],[-162.93,69.86],[-161.91,70.33],[-160.93,70.45],[-159.04,70.89],[-158.12,70.82],[-156.58,71.36],[-155.07,71.15],[-154.34,70.7],[-153.9,70.89],[-152.21,70.83],[-152.27,70.6],[-150.74,70.43],[-149.72,70.53],[-147.61,70.21],[-145.69,70.12],[-144.92,69.99],[-143.59,70.15],[-142.07,69.85],[-140.99,69.71]]],[[[-171.73,63.78],[-171.11,63.59],[-170.49,63.69],[-169.68,63.43],[-168.69,63.3],[-168.77,63.19],[-169.53,62.98],[-170.29,63.19],[-170.67,63.38],[-171.55,63.32],[-171.79,63.41],[-171.73,63.78]]]]}},
{"type":"Feature","id":"Venezuela","properties":{"name":"Venezuela"},"geometry":{"type":"Polygon","coordinates":[[[-60.73,5.2],[-60.6,4.92],[-60.97,4.54],[-62.09,4.16],[-62.8,4.01],[-63.09,3.77],[-63.89,4.02],[-64.63,4.15],[-64.82,4.06],[-64.37,3.8],[-64.41,3.13],[-64.27,2.5],[-63.42,2.41],[-63.37,2.2],[-64.08,1.92],[-64.2,1.49],[-64.61,1.33],[-65.35,1.1],[-65.55,0.79],[-66.33,0.72],[-66.88,1.25],[-67.18,2.25],[-67.45,2.6],[-67.81,2.82],[-67.3,3.32],[-67.34,3.54],[-67.62,3.84],[-67.82,4.5],[-67.74,5.22],[-67.52,5.56],[-67.34,6.1],[-67.7,6.27],[-68.27,6.15],[-68.99,6.21],[-69.39,6.1],[-70.09,6.96],[-70.67,7.09],[-71.96,6.99],[-72.2,7.34],[-72.44,7.42],[-72.48,7.63],[-72.36,8],[-72.44,8.41],[-72.66,8.63],[-72.79,9.09],[-73.3,9.15],[-73.03,9.74],[-72.91,10.45],[-72.61,10.82],[-72.23,11.11],[-71.97,11.61],[-71.33,11.78],[-71.36,11.54],[-71.95,11.42],[-71.62,10.97],[-71.63,10.45],[-72.07,9.87],[-71.7,9.07],[-71.26,9.14],[-71.04,9.86],[-71.35,10.21],[-71.4,10.97],[-70.16,11.38],[-70.29,11.85],[-69.94,12.16],[-69.58,11.46],[-68.88,11.44],[-68.23,10.89],[-68.19,10.55],[-67.3,10.55],[-66.23,10.65],[-65.66,10.2],[-64.89,10.08],[-64.33,10.39],[-64.32,10.64],[-63.08,10.7],[-61.88,10.72],[-62.73,10.42],[-62.39,9.95],[-61.59,9.87],[-60.83,9.38],[-60.67,8.58],[-60.15,8.6],[-59.76,8.37],[-60.55,7.78],[-60.64,7.42],[-60.3,7.04],[-60.54,6.86],[-61.16,6.7],[-61.14,6.23],[-61.41,5.96],[-60.73,5.2]]]}}
]}
